*******************************************************************************
Ephemeris / WWW_USER Mon Mar 24 08:51:01 2025 Pasadena, USA      / Horizons    
*******************************************************************************
Target body name: (2018 PU7)                      {source: JPL#13}
Center body name: Earth (399)                     {source: DE441}
Center-site name: Mauna Kea
*******************************************************************************
Start time      : A.D. 2018-Nov-08 03:54:00.0000 UT      
Stop  time      : A.D. 2018-Nov-08 16:17:00.0000 UT      
Step-size       : 1 minutes
*******************************************************************************
Target pole/equ : undefined
Target radii    : undefined                                                    
Center geodetic : 204.5278, 19.8260847, 4.21024   {E-lon(deg),Lat(deg),Alt(km)}
Center cylindric: 204.5278, 6006.35451, 2151.0229 {E-lon(deg),Dxy(km),Dz(km)}
Center pole/equ : ITRF93                          {East-longitude positive}
Center radii    : 6378.137, 6378.137, 6356.752 km {Equator_a, b, pole_c}       
Target primary  : Sun
Vis. interferer : MOON (R_eq= 1737.400) km        {source: DE441}
Rel. light bend : Sun                             {source: DE441}
Rel. lght bnd GM: 1.3271E+11 km^3/s^2                                          
Small-body perts: Yes                             {source: SB441-N16}
Atmos refraction: NO (AIRLESS)
RA format       : HMS
Time format     : CAL 
Calendar mode   : Mixed Julian/Gregorian
RTS-only print  : NO       
EOP file        : eop.250321.p250617                                           
EOP coverage    : DATA-BASED 1962-JAN-20 TO 2025-MAR-21. PREDICTS-> 2025-JUN-16
Units conversion: 1 au= 149597870.700 km, c= 299792.458 km/s, 1 day= 86400.0 s 
Table cut-offs 1: Elevation (-90.0deg=NO ),Airmass (>38.000=NO), Daylight (YES)
Table cut-offs 2: Solar elongation (  0.0,180.0=NO ),Local Hour Angle( 0.0=NO )
Table cut-offs 3: RA/DEC angular rate (     0.0=NO )                           
*******************************************************************************
Initial IAU76/J2000 heliocentric ecliptic osculating elements (au, days, deg.):
  EPOCH=  2458344.5 ! 2018-Aug-14.00 (TDB)         Residual RMS= .35253        
   EC= .5418411610879256   QR= .9908981152950816   TP= 2458306.0483912583      
   OM= 307.3200871504195   W=  329.2166965634538   IN= 6.906215163822786       
  Equivalent ICRF heliocentric cartesian coordinates (au, au/d):
   X= 8.533350742151261E-01  Y=-6.504796009993946E-01  Z=-2.480927258064065E-01
  VX= 1.615085148536055E-02 VY= 9.661045842052620E-03 VZ= 6.810490395822813E-03
Asteroid physical parameters (km, seconds, rotational period in hours):        
   GM= n.a.                RAD= n.a.               ROTPER= n.a.                
   H= 23.4                 G= .150                 B-V= n.a.                   
                           ALBEDO= n.a.            STYP= n.a.                  
*******************************************************************************
 Date__(UT)__HR:MN     R.A._________(ICRF)_________DEC
******************************************************
$$SOE
 2018-Nov-08 10:03     22 59 32.108388 +06 07 54.95827
 2018-Nov-08 10:04     22 59 32.161204 +06 07 55.02305
 2018-Nov-08 10:05     22 59 32.214029 +06 07 55.08782
 2018-Nov-08 10:06     22 59 32.266864 +06 07 55.15259
 2018-Nov-08 10:07     22 59 32.319709 +06 07 55.21735
 2018-Nov-08 10:08     22 59 32.372563 +06 07 55.28210
 2018-Nov-08 10:09     22 59 32.425427 +06 07 55.34685
 2018-Nov-08 10:10     22 59 32.478300 +06 07 55.41160
 2018-Nov-08 10:11     22 59 32.531183 +06 07 55.47634
 2018-Nov-08 10:12     22 59 32.584076 +06 07 55.54107
 2018-Nov-08 10:13     22 59 32.636979 +06 07 55.60580
 2018-Nov-08 10:14     22 59 32.689891 +06 07 55.67053
 2018-Nov-08 10:15     22 59 32.742813 +06 07 55.73525
 2018-Nov-08 10:16     22 59 32.795745 +06 07 55.79996
 2018-Nov-08 10:17     22 59 32.848687 +06 07 55.86467
 2018-Nov-08 10:18     22 59 32.901639 +06 07 55.92938
 2018-Nov-08 10:19     22 59 32.954601 +06 07 55.99408
 2018-Nov-08 10:20     22 59 33.007573 +06 07 56.05877
 2018-Nov-08 10:21     22 59 33.060554 +06 07 56.12347
 2018-Nov-08 10:22     22 59 33.113546 +06 07 56.18815
 2018-Nov-08 10:23     22 59 33.166547 +06 07 56.25284
 2018-Nov-08 10:24     22 59 33.219559 +06 07 56.31752
 2018-Nov-08 10:25     22 59 33.272580 +06 07 56.38219
 2018-Nov-08 10:26     22 59 33.325612 +06 07 56.44687
 2018-Nov-08 10:27     22 59 33.378654 +06 07 56.51153
 2018-Nov-08 10:28     22 59 33.431706 +06 07 56.57620
 2018-Nov-08 10:29     22 59 33.484767 +06 07 56.64086
 2018-Nov-08 10:30     22 59 33.537839 +06 07 56.70551
 2018-Nov-08 10:31     22 59 33.590922 +06 07 56.77016
 2018-Nov-08 10:32     22 59 33.644014 +06 07 56.83481
 2018-Nov-08 10:33     22 59 33.697117 +06 07 56.89946
 2018-Nov-08 10:34     22 59 33.750229 +06 07 56.96410
 2018-Nov-08 10:35     22 59 33.803353 +06 07 57.02874
 2018-Nov-08 10:36     22 59 33.856486 +06 07 57.09337
 2018-Nov-08 10:37     22 59 33.909629 +06 07 57.15800
 2018-Nov-08 10:38     22 59 33.962783 +06 07 57.22263
 2018-Nov-08 10:39     22 59 34.015947 +06 07 57.28725
 2018-Nov-08 10:40     22 59 34.069122 +06 07 57.35188
 2018-Nov-08 10:41     22 59 34.122307 +06 07 57.41650
 2018-Nov-08 10:42     22 59 34.175502 +06 07 57.48111
 2018-Nov-08 10:43     22 59 34.228708 +06 07 57.54572
 2018-Nov-08 10:44     22 59 34.281924 +06 07 57.61033
 2018-Nov-08 10:45     22 59 34.335150 +06 07 57.67494
 2018-Nov-08 10:46     22 59 34.388387 +06 07 57.73955
 2018-Nov-08 10:47     22 59 34.441634 +06 07 57.80415
 2018-Nov-08 10:48     22 59 34.494892 +06 07 57.86875
 2018-Nov-08 10:49     22 59 34.548161 +06 07 57.93335
 2018-Nov-08 10:50     22 59 34.601440 +06 07 57.99794
 2018-Nov-08 10:51     22 59 34.654729 +06 07 58.06253
 2018-Nov-08 10:52     22 59 34.708029 +06 07 58.12712
 2018-Nov-08 10:53     22 59 34.761339 +06 07 58.19171
 2018-Nov-08 10:54     22 59 34.814660 +06 07 58.25630
 2018-Nov-08 10:55     22 59 34.867992 +06 07 58.32088
 2018-Nov-08 10:56     22 59 34.921334 +06 07 58.38547
 2018-Nov-08 10:57     22 59 34.974687 +06 07 58.45005
 2018-Nov-08 10:58     22 59 35.028051 +06 07 58.51463
 2018-Nov-08 10:59     22 59 35.081425 +06 07 58.57920
 2018-Nov-08 11:00     22 59 35.134810 +06 07 58.64378
 2018-Nov-08 11:01     22 59 35.188205 +06 07 58.70835
 2018-Nov-08 11:02     22 59 35.241611 +06 07 58.77292
 2018-Nov-08 11:03     22 59 35.295028 +06 07 58.83750
 2018-Nov-08 11:04     22 59 35.348456 +06 07 58.90206
 2018-Nov-08 11:05     22 59 35.401894 +06 07 58.96663
 2018-Nov-08 11:06     22 59 35.455343 +06 07 59.03120
 2018-Nov-08 11:07     22 59 35.508803 +06 07 59.09577
 2018-Nov-08 11:08     22 59 35.562274 +06 07 59.16033
 2018-Nov-08 11:09     22 59 35.615755 +06 07 59.22490
 2018-Nov-08 11:10     22 59 35.669248 +06 07 59.28946
 2018-Nov-08 11:11     22 59 35.722751 +06 07 59.35402
 2018-Nov-08 11:12     22 59 35.776265 +06 07 59.41858
 2018-Nov-08 11:13     22 59 35.829789 +06 07 59.48314
 2018-Nov-08 11:14     22 59 35.883325 +06 07 59.54771
 2018-Nov-08 11:15     22 59 35.936871 +06 07 59.61227
 2018-Nov-08 11:16     22 59 35.990429 +06 07 59.67682
 2018-Nov-08 11:17     22 59 36.043997 +06 07 59.74138
 2018-Nov-08 11:18     22 59 36.097576 +06 07 59.80594
 2018-Nov-08 11:19     22 59 36.151166 +06 07 59.87050
 2018-Nov-08 11:20     22 59 36.204767 +06 07 59.93506
 2018-Nov-08 11:21     22 59 36.258379 +06 07 59.99962
 2018-Nov-08 11:22     22 59 36.312002 +06 08 00.06418
 2018-Nov-08 11:23     22 59 36.365636 +06 08 00.12874
 2018-Nov-08 11:24     22 59 36.419281 +06 08 00.19330
 2018-Nov-08 11:25     22 59 36.472936 +06 08 00.25785
 2018-Nov-08 11:26     22 59 36.526603 +06 08 00.32241
 2018-Nov-08 11:27     22 59 36.580281 +06 08 00.38697
 2018-Nov-08 11:28     22 59 36.633969 +06 08 00.45153
 2018-Nov-08 11:29     22 59 36.687669 +06 08 00.51610
 2018-Nov-08 11:30     22 59 36.741380 +06 08 00.58066
 2018-Nov-08 11:31     22 59 36.795102 +06 08 00.64522
 2018-Nov-08 11:32     22 59 36.848834 +06 08 00.70978
 2018-Nov-08 11:33     22 59 36.902578 +06 08 00.77435
 2018-Nov-08 11:34     22 59 36.956333 +06 08 00.83891
 2018-Nov-08 11:35     22 59 37.010099 +06 08 00.90348
 2018-Nov-08 11:36     22 59 37.063876 +06 08 00.96804
 2018-Nov-08 11:37     22 59 37.117664 +06 08 01.03261
 2018-Nov-08 11:38     22 59 37.171463 +06 08 01.09718
 2018-Nov-08 11:39     22 59 37.225274 +06 08 01.16175
 2018-Nov-08 11:40     22 59 37.279095 +06 08 01.22632
 2018-Nov-08 11:41     22 59 37.332927 +06 08 01.29090
 2018-Nov-08 11:42     22 59 37.386771 +06 08 01.35547
 2018-Nov-08 11:43     22 59 37.440626 +06 08 01.42005
 2018-Nov-08 11:44     22 59 37.494491 +06 08 01.48463
 2018-Nov-08 11:45     22 59 37.548368 +06 08 01.54921
 2018-Nov-08 11:46     22 59 37.602256 +06 08 01.61379
 2018-Nov-08 11:47     22 59 37.656156 +06 08 01.67838
 2018-Nov-08 11:48     22 59 37.710066 +06 08 01.74296
 2018-Nov-08 11:49     22 59 37.763987 +06 08 01.80755
 2018-Nov-08 11:50     22 59 37.817920 +06 08 01.87214
 2018-Nov-08 11:51     22 59 37.871864 +06 08 01.93673
 2018-Nov-08 11:52     22 59 37.925819 +06 08 02.00133
 2018-Nov-08 11:53     22 59 37.979785 +06 08 02.06592
 2018-Nov-08 11:54     22 59 38.033762 +06 08 02.13052
 2018-Nov-08 11:55     22 59 38.087750 +06 08 02.19513
 2018-Nov-08 11:56     22 59 38.141750 +06 08 02.25973
 2018-Nov-08 11:57     22 59 38.195761 +06 08 02.32434
 2018-Nov-08 11:58     22 59 38.249783 +06 08 02.38895
 2018-Nov-08 11:59     22 59 38.303816 +06 08 02.45356
 2018-Nov-08 12:00     22 59 38.357860 +06 08 02.51818
 2018-Nov-08 12:01     22 59 38.411915 +06 08 02.58280
 2018-Nov-08 12:02     22 59 38.465982 +06 08 02.64742
 2018-Nov-08 12:03     22 59 38.520060 +06 08 02.71205
 2018-Nov-08 12:04     22 59 38.574149 +06 08 02.77668
 2018-Nov-08 12:05     22 59 38.628249 +06 08 02.84131
